MALLIGYONG-1            
1 58400U 23179A   24005.86393604  .00004936  00000+0  21988-3 0  9991
2 58400  97.4254 255.0446 0017310 115.9853 244.3168 15.21767934  6885
